STARLINK-1859_new
1 17146C 20088AA  21326.12990952  .00736664  00000-0  24168-1 0  3269
2 17146  53.0566 151.8260 0001496  64.1443 326.9028 15.30323816    17
STARLINK-1859_old
1 27146C 20088AA  21325.14967792  .00735218  00000-0  25263-1 0  3256
2 27146  53.0559 156.3867 0001487  66.0504 324.4670 15.28831110    15
